[
  {
    "OBJECT_NAME": "EWS-G2 (GOES 15)",
    "OBJECT_ID": "2010-008A",
    "EPOCH": "2025-05-24T15:08:29.983776",
    "MEAN_MOTION": 1.00266848,
    "ECCENTRICITY": 0.0001552,
    "INCLINATION": 0.2692,
    "RA_OF_ASC_NODE": 85.8542,
    "ARG_OF_PERICENTER": 126.0453,
    "MEAN_ANOMALY": 319.2686,
    "EPHEMERIS_TYPE": 0,
    "CLASSIFICATION_TYPE": "U",
    "NORAD_CAT_ID": 36411,
    "ELEMENT_SET_NO": 999,
    "REV_AT_EPOCH": 5574,
    "BSTAR": 0,
    "MEAN_MOTION_DOT": 4.6e-07,
    "MEAN_MOTION_DDOT": 0
  },
  {
    "OBJECT_NAME": "GOES 16",
    "OBJECT_ID": "2016-071A",
    "EPOCH": "2025-05-24T11:12:22.489344",
    "MEAN_MOTION": 1.00124482,
    "ECCENTRICITY": 0.0001391,
    "INCLINATION": 0.055,
    "RA_OF_ASC_NODE": 261.6827,
    "ARG_OF_PERICENTER": 225.0902,
    "MEAN_ANOMALY": 185.7586,
    "EPHEMERIS_TYPE": 0,
    "CLASSIFICATION_TYPE": "U",
    "NORAD_CAT_ID": 41866,
    "ELEMENT_SET_NO": 999,
    "REV_AT_EPOCH": 3120,
    "BSTAR": 0,
    "MEAN_MOTION_DOT": -1.03e-06,
    "MEAN_MOTION_DDOT": 0
  },
  {
    "OBJECT_NAME": "GOES 17",
    "OBJECT_ID": "2018-022A",
    "EPOCH": "2025-05-24T11:54:33.154848",
    "MEAN_MOTION": 1.00270858,
    "ECCENTRICITY": 0.000272,
    "INCLINATION": 0.009,
    "RA_OF_ASC_NODE": 252.8557,
    "ARG_OF_PERICENTER": 210.3726,
    "MEAN_ANOMALY": 213.3411,
    "EPHEMERIS_TYPE": 0,
    "CLASSIFICATION_TYPE": "U",
    "NORAD_CAT_ID": 43226,
    "ELEMENT_SET_NO": 999,
    "REV_AT_EPOCH": 2652,
    "BSTAR": 0,
    "MEAN_MOTION_DOT": -8.3e-07,
    "MEAN_MOTION_DDOT": 0
  },
  {
    "OBJECT_NAME": "GOES 18",
    "OBJECT_ID": "2022-021A",
    "EPOCH": "2025-05-24T12:08:38.605632",
    "MEAN_MOTION": 1.00271086,
    "ECCENTRICITY": 3.03e-05,
    "INCLINATION": 0.0057,
    "RA_OF_ASC_NODE": 192.1793,
    "ARG_OF_PERICENTER": 353.1106,
    "MEAN_ANOMALY": 102.2237,
    "EPHEMERIS_TYPE": 0,
    "CLASSIFICATION_TYPE": "U",
    "NORAD_CAT_ID": 51850,
    "ELEMENT_SET_NO": 999,
    "REV_AT_EPOCH": 1190,
    "BSTAR": 0,
    "MEAN_MOTION_DOT": 1.06e-06,
    "MEAN_MOTION_DDOT": 0
  },
  {
    "OBJECT_NAME": "GOES 19",
    "OBJECT_ID": "2024-119A",
    "EPOCH": "2025-05-24T12:02:56.088384",
    "MEAN_MOTION": 1.0027019,
    "ECCENTRICITY": 5.8e-06,
    "INCLINATION": 0.0217,
    "RA_OF_ASC_NODE": 79.5377,
    "ARG_OF_PERICENTER": 180.9267,
    "MEAN_ANOMALY": 87.4073,
    "EPHEMERIS_TYPE": 0,
    "CLASSIFICATION_TYPE": "U",
    "NORAD_CAT_ID": 60133,
    "ELEMENT_SET_NO": 999,
    "REV_AT_EPOCH": 306,
    "BSTAR": 0,
    "MEAN_MOTION_DOT": -2.39e-06,
    "MEAN_MOTION_DDOT": 0
  }
]